[{"OBJECT_NAME":"ICEYE-X4","OBJECT_ID":"2019-038D","EPOCH":"2026-03-09T23:53:58.416000","MEAN_MOTION":15.26985132,"ECCENTRICITY":0.00122769,"INCLINATION":97.8888,"RA_OF_ASC_NODE":96.1923,"ARG_OF_PERICENTER":293.9914,"MEAN_ANOMALY":66.0038,"EPHEMERIS_TYPE":0,"CLASSIFICATION_TYPE":"U","NORAD_CAT_ID":44390,"ELEMENT_SET_NO":999,"REV_AT_EPOCH":36665,"BSTAR":0.00049915294,"MEAN_MOTION_DOT":0.00013179,"MEAN_MOTION_DDOT":0},{"OBJECT_NAME":"STARLINK-31606","OBJECT_ID":"2024-076H","EPOCH":"2026-03-09T22:00:01.999584","MEAN_MOTION":15.27570598,"ECCENTRICITY":0.00014715,"INCLINATION":43.0033,"RA_OF_ASC_NODE":7.3104,"ARG_OF_PERICENTER":258.6921,"MEAN_ANOMALY":47.9748,"EPHEMERIS_TYPE":0,"CLASSIFICATION_TYPE":"U","NORAD_CAT_ID":59571,"ELEMENT_SET_NO":999,"REV_AT_EPOCH":585,"BSTAR":0.00010492345,"MEAN_MOTION_DOT":2.625e-5,"MEAN_MOTION_DDOT":0}]
